[{"OBJECT_NAME":"STARLINK-30562","OBJECT_ID":"2023-156F","EPOCH":"2026-03-09T12:55:05.181888","MEAN_MOTION":15.3018714,"ECCENTRICITY":0.00012021,"INCLINATION":53.1601,"RA_OF_ASC_NODE":168.5952,"ARG_OF_PERICENTER":82.695,"MEAN_ANOMALY":277.4187,"EPHEMERIS_TYPE":0,"CLASSIFICATION_TYPE":"U","NORAD_CAT_ID":58033,"ELEMENT_SET_NO":999,"REV_AT_EPOCH":13501,"BSTAR":4.07713e-7,"MEAN_MOTION_DOT":-3.47e-6,"MEAN_MOTION_DDOT":0},{"OBJECT_NAME":"KUIPER-00180","OBJECT_ID":"2026-030E","EPOCH":"2026-03-09T22:29:40.634304","MEAN_MOTION":15.31865817,"ECCENTRICITY":0.00157227,"INCLINATION":51.8823,"RA_OF_ASC_NODE":218.464,"ARG_OF_PERICENTER":75.5448,"MEAN_ANOMALY":284.728,"EPHEMERIS_TYPE":0,"CLASSIFICATION_TYPE":"U","NORAD_CAT_ID":67768,"ELEMENT_SET_NO":999,"REV_AT_EPOCH":512,"BSTAR":0.011360708,"MEAN_MOTION_DOT":0.00373574,"MEAN_MOTION_DDOT":0}]
